CCSDS_OMM_VERS = 2.0
CREATION_DATE  = 
ORIGINATOR     = 

OBJECT_NAME    = COSMOS 2242
OBJECT_ID      = 1993-024A
CENTER_NAME    = EARTH
REF_FRAME      = TEME
TIME_SYSTEM    = UTC
MEAN_ELEMENT_THEORY = SGP/SGP4

EPOCH          = 2026-03-10T00:53:24.812736
MEAN_MOTION    = 14.96550816
ECCENTRICITY   = .0015165
INCLINATION    = 82.5157
RA_OF_ASC_NODE = 266.3841
ARG_OF_PERICENTER = 307.6039
MEAN_ANOMALY   = 52.3805

EPHEMERIS_TYPE = 0
CLASSIFICATION_TYPE = U
NORAD_CAT_ID   = 22626
ELEMENT_SET_NO = 999
REV_AT_EPOCH   = 78044
BSTAR          = .21417E-3
MEAN_MOTION_DOT = .2466E-4
MEAN_MOTION_DDOT = 0

CCSDS_OMM_VERS = 2.0
CREATION_DATE  = 
ORIGINATOR     = 

OBJECT_NAME    = SL-16 R/B
OBJECT_ID      = 1993-059B
CENTER_NAME    = EARTH
REF_FRAME      = TEME
TIME_SYSTEM    = UTC
MEAN_ELEMENT_THEORY = SGP/SGP4

EPOCH          = 2026-03-10T02:41:28.368096
MEAN_MOTION    = 14.17231594
ECCENTRICITY   = .0018532
INCLINATION    = 70.9927
RA_OF_ASC_NODE = 10.2349
ARG_OF_PERICENTER = 215.9464
MEAN_ANOMALY   = 144.0415

EPHEMERIS_TYPE = 0
CLASSIFICATION_TYPE = U
NORAD_CAT_ID   = 22803
ELEMENT_SET_NO = 999
REV_AT_EPOCH   = 67959
BSTAR          = -.47306E-4
MEAN_MOTION_DOT = -.144E-5
MEAN_MOTION_DDOT = 0

CCSDS_OMM_VERS = 2.0
CREATION_DATE  = 
ORIGINATOR     = 

OBJECT_NAME    = ARIANE 40 R/B
OBJECT_ID      = 1993-061H
CENTER_NAME    = EARTH
REF_FRAME      = TEME
TIME_SYSTEM    = UTC
MEAN_ELEMENT_THEORY = SGP/SGP4

EPOCH          = 2026-03-10T02:49:16.917888
MEAN_MOTION    = 14.32861206
ECCENTRICITY   = .0009581
INCLINATION    = 98.4915
RA_OF_ASC_NODE = 137.9968
ARG_OF_PERICENTER = 283.6486
MEAN_ANOMALY   = 76.3631

EPHEMERIS_TYPE = 0
CLASSIFICATION_TYPE = U
NORAD_CAT_ID   = 22830
ELEMENT_SET_NO = 999
REV_AT_EPOCH   = 69416
BSTAR          = .10245E-3
MEAN_MOTION_DOT = .236E-5
MEAN_MOTION_DDOT = 0

CCSDS_OMM_VERS = 2.0
CREATION_DATE  = 
ORIGINATOR     = 

OBJECT_NAME    = COSMOS 2278
OBJECT_ID      = 1994-023A
CENTER_NAME    = EARTH
REF_FRAME      = TEME
TIME_SYSTEM    = UTC
MEAN_ELEMENT_THEORY = SGP/SGP4

EPOCH          = 2026-03-10T05:37:16.984704
MEAN_MOTION    = 14.14379120
ECCENTRICITY   = .0008068
INCLINATION    = 71.0552
RA_OF_ASC_NODE = 173.9582
ARG_OF_PERICENTER = 12.1891
MEAN_ANOMALY   = 347.9425

EPHEMERIS_TYPE = 0
CLASSIFICATION_TYPE = U
NORAD_CAT_ID   = 23087
ELEMENT_SET_NO = 999
REV_AT_EPOCH   = 64488
BSTAR          = .75171E-4
MEAN_MOTION_DOT = .97E-6
MEAN_MOTION_DDOT = 0

CCSDS_OMM_VERS = 2.0
CREATION_DATE  = 
ORIGINATOR     = 

OBJECT_NAME    = SL-16 R/B
OBJECT_ID      = 1994-023B
CENTER_NAME    = EARTH
REF_FRAME      = TEME
TIME_SYSTEM    = UTC
MEAN_ELEMENT_THEORY = SGP/SGP4

EPOCH          = 2026-03-10T03:20:14.580096
MEAN_MOTION    = 14.15011712
ECCENTRICITY   = .0005717
INCLINATION    = 70.9985
RA_OF_ASC_NODE = 69.9432
ARG_OF_PERICENTER = 285.2568
MEAN_ANOMALY   = 74.7922

EPHEMERIS_TYPE = 0
CLASSIFICATION_TYPE = U
NORAD_CAT_ID   = 23088
ELEMENT_SET_NO = 999
REV_AT_EPOCH   = 64615
BSTAR          = -.10093E-3
MEAN_MOTION_DOT = -.243E-5
MEAN_MOTION_DDOT = 0

CCSDS_OMM_VERS = 2.0
CREATION_DATE  = 
ORIGINATOR     = 

OBJECT_NAME    = SL-16 R/B
OBJECT_ID      = 1994-074B
CENTER_NAME    = EARTH
REF_FRAME      = TEME
TIME_SYSTEM    = UTC
MEAN_ELEMENT_THEORY = SGP/SGP4

EPOCH          = 2026-03-10T01:23:07.022688
MEAN_MOTION    = 14.79408494
ECCENTRICITY   = .0005817
INCLINATION    = 97.7109
RA_OF_ASC_NODE = 99.8605
ARG_OF_PERICENTER = 208.9932
MEAN_ANOMALY   = 178.9569

EPHEMERIS_TYPE = 0
CLASSIFICATION_TYPE = U
NORAD_CAT_ID   = 23343
ELEMENT_SET_NO = 999
REV_AT_EPOCH   = 68730
BSTAR          = .8587E-4
MEAN_MOTION_DOT = .591E-5
MEAN_MOTION_DDOT = 0

CCSDS_OMM_VERS = 2.0
CREATION_DATE  = 
ORIGINATOR     = 

OBJECT_NAME    = SL-16 R/B
OBJECT_ID      = 1994-077B
CENTER_NAME    = EARTH
REF_FRAME      = TEME
TIME_SYSTEM    = UTC
MEAN_ELEMENT_THEORY = SGP/SGP4

EPOCH          = 2026-03-10T04:35:17.696256
MEAN_MOTION    = 14.15561273
ECCENTRICITY   = .0003067
INCLINATION    = 70.9853
RA_OF_ASC_NODE = 351.4341
ARG_OF_PERICENTER = 211.4855
MEAN_ANOMALY   = 148.6084

EPHEMERIS_TYPE = 0
CLASSIFICATION_TYPE = U
NORAD_CAT_ID   = 23405
ELEMENT_SET_NO = 999
REV_AT_EPOCH   = 61630
BSTAR          = .24298E-4
MEAN_MOTION_DOT = 0
MEAN_MOTION_DDOT = 0

CCSDS_OMM_VERS = 2.0
CREATION_DATE  = 
ORIGINATOR     = 

OBJECT_NAME    = ARIANE 40+ R/B
OBJECT_ID      = 1995-021B
CENTER_NAME    = EARTH
REF_FRAME      = TEME
TIME_SYSTEM    = UTC
MEAN_ELEMENT_THEORY = SGP/SGP4

EPOCH          = 2026-03-10T03:47:42.688608
MEAN_MOTION    = 14.39772837
ECCENTRICITY   = .0007663
INCLINATION    = 98.4495
RA_OF_ASC_NODE = 140.6344
ARG_OF_PERICENTER = 135.1800
MEAN_ANOMALY   = 254.0412

EPHEMERIS_TYPE = 0
CLASSIFICATION_TYPE = U
NORAD_CAT_ID   = 23561
ELEMENT_SET_NO = 999
REV_AT_EPOCH   = 61931
BSTAR          = .12658E-3
MEAN_MOTION_DOT = .353E-5
MEAN_MOTION_DDOT = 0

CCSDS_OMM_VERS = 2.0
CREATION_DATE  = 
ORIGINATOR     = 

OBJECT_NAME    = SL-16 R/B
OBJECT_ID      = 1995-058B
CENTER_NAME    = EARTH
REF_FRAME      = TEME
TIME_SYSTEM    = UTC
MEAN_ELEMENT_THEORY = SGP/SGP4

EPOCH          = 2026-03-09T16:53:04.660224
MEAN_MOTION    = 14.15495248
ECCENTRICITY   = .00107933
INCLINATION    = 71.0220
RA_OF_ASC_NODE = 180.2259
ARG_OF_PERICENTER = 125.7746
MEAN_ANOMALY   = 234.4382

EPHEMERIS_TYPE = 0
CLASSIFICATION_TYPE = U
NORAD_CAT_ID   = 23705
ELEMENT_SET_NO = 999
REV_AT_EPOCH   = 56785
BSTAR          = .18469413E-3
MEAN_MOTION_DOT = .314E-5
MEAN_MOTION_DDOT = 0

CCSDS_OMM_VERS = 2.0
CREATION_DATE  = 
ORIGINATOR     = 

OBJECT_NAME    = SL-16 R/B
OBJECT_ID      = 1996-051B
CENTER_NAME    = EARTH
REF_FRAME      = TEME
TIME_SYSTEM    = UTC
MEAN_ELEMENT_THEORY = SGP/SGP4

EPOCH          = 2026-03-09T17:47:08.854080
MEAN_MOTION    = 14.12415709
ECCENTRICITY   = .00150547
INCLINATION    = 70.7604
RA_OF_ASC_NODE = 175.1301
ARG_OF_PERICENTER = 147.9840
MEAN_ANOMALY   = 212.2198

EPHEMERIS_TYPE = 0
CLASSIFICATION_TYPE = U
NORAD_CAT_ID   = 24298
ELEMENT_SET_NO = 999
REV_AT_EPOCH   = 52165
BSTAR          = .87951502E-4
MEAN_MOTION_DOT = .113E-5
MEAN_MOTION_DDOT = 0

CCSDS_OMM_VERS = 2.0
CREATION_DATE  = 
ORIGINATOR     = 

OBJECT_NAME    = ORBVIEW 2 (SEASTAR)
OBJECT_ID      = 1997-037A
CENTER_NAME    = EARTH
REF_FRAME      = TEME
TIME_SYSTEM    = UTC
MEAN_ELEMENT_THEORY = SGP/SGP4

EPOCH          = 2026-03-10T01:05:06.173376
MEAN_MOTION    = 14.35495267
ECCENTRICITY   = .0003098
INCLINATION    = 98.8568
RA_OF_ASC_NODE = 233.3664
ARG_OF_PERICENTER = 71.4417
MEAN_ANOMALY   = 288.7104

EPHEMERIS_TYPE = 0
CLASSIFICATION_TYPE = U
NORAD_CAT_ID   = 24883
ELEMENT_SET_NO = 999
REV_AT_EPOCH   = 50852
BSTAR          = .15062E-3
MEAN_MOTION_DOT = .387E-5
MEAN_MOTION_DDOT = 0

CCSDS_OMM_VERS = 2.0
CREATION_DATE  = 
ORIGINATOR     = 

OBJECT_NAME    = SL-16 R/B
OBJECT_ID      = 1998-043G
CENTER_NAME    = EARTH
REF_FRAME      = TEME
TIME_SYSTEM    = UTC
MEAN_ELEMENT_THEORY = SGP/SGP4

EPOCH          = 2026-03-09T20:55:34.365792
MEAN_MOTION    = 14.26049928
ECCENTRICITY   = .00102097
INCLINATION    = 98.8253
RA_OF_ASC_NODE = 22.2366
ARG_OF_PERICENTER = 19.8771
MEAN_ANOMALY   = 340.2805

EPHEMERIS_TYPE = 0
CLASSIFICATION_TYPE = U
NORAD_CAT_ID   = 25400
ELEMENT_SET_NO = 999
REV_AT_EPOCH   = 43901
BSTAR          = .65699284E-4
MEAN_MOTION_DOT = .112E-5
MEAN_MOTION_DDOT = 0

